{
  "California": [
    { "name": "Los Angeles", "zipCode": "90001" },
    { "name": "Beverly Hills", "zipCode": "90210" },
    { "name": "Hollywood", "zipCode": "90028" },
    { "name": "San Francisco", "zipCode": "94101" },
    { "name": "Chinatown", "zipCode": "94133" },
    { "name": "Mission District", "zipCode": "94110" },
    { "name": "San Diego", "zipCode": "92101" },
    { "name": "Gaslamp Quarter", "zipCode": "92101" },
    { "name": "La Jolla", "zipCode": "92037" },
    { "name": "San Jose", "zipCode": "95113" },
    { "name": "Oakland", "zipCode": "94612" },
    { "name": "Sacramento", "zipCode": "95814" },
    { "name": "Long Beach", "zipCode": "90802" },
    { "name": "Fresno", "zipCode": "93721" },
    { "name": "Bakersfield", "zipCode": "93301" },
    { "name": "Anaheim", "zipCode": "92805" },
    { "name": "Santa Ana", "zipCode": "92701" },
    { "name": "Riverside", "zipCode": "92501" },
    { "name": "Stockton", "zipCode": "95202" },
    { "name": "Chula Vista", "zipCode": "91910" },
    { "name": "Irvine", "zipCode": "92602" },
    { "name": "Fremont", "zipCode": "94538" },
    { "name": "San Bernardino", "zipCode": "92401" },
    { "name": "Modesto", "zipCode": "95350" },
    { "name": "Fontana", "zipCode": "92335" },
    { "name": "Oxnard", "zipCode": "93030" },
    { "name": "Moreno Valley", "zipCode": "92553" },
    { "name": "Huntington Beach", "zipCode": "92646" },
    { "name": "Glendale", "zipCode": "91201" },
    { "name": "Santa Clarita", "zipCode": "91350" },
    { "name": "Garden Grove", "zipCode": "92840" },
    { "name": "Oceanside", "zipCode": "92054" },
    { "name": "Rancho Cucamonga", "zipCode": "91730" },
    { "name": "Santa Rosa", "zipCode": "95401" },
    { "name": "Ontario", "zipCode": "91761" },
    { "name": "Elk Grove", "zipCode": "95757" },
    { "name": "Corona", "zipCode": "92879" },
    { "name": "Pomona", "zipCode": "91766" },
    { "name": "Escondido", "zipCode": "92025" },
    { "name": "Sunnyvale", "zipCode": "94087" },
    { "name": "Pasadena", "zipCode": "91101" },
    { "name": "Torrance", "zipCode": "90501" },
    { "name": "Orange", "zipCode": "92865" },
    { "name": "Fullerton", "zipCode": "92831" },
    { "name": "Hayward", "zipCode": "94541" },
    { "name": "Thousand Oaks", "zipCode": "91360" },
    { "name": "Visalia", "zipCode": "93291" },
    { "name": "Concord", "zipCode": "94520" },
    { "name": "Roseville", "zipCode": "95678" },
    { "name": "Vallejo", "zipCode": "94590" },
    { "name": "Simi Valley", "zipCode": "93065" },
    { "name": "Berkeley", "zipCode": "94704" },
    { "name": "El Monte", "zipCode": "91731" },
    { "name": "Downey", "zipCode": "90240" },
    { "name": "Costa Mesa", "zipCode": "92626" },
    { "name": "Inglewood", "zipCode": "90301" },
    { "name": "Carlsbad", "zipCode": "92008" },
    { "name": "Fairfield", "zipCode": "94533" },
    { "name": "Richmond", "zipCode": "94801" },
    { "name": "Murrieta", "zipCode": "92563" },
    { "name": "Livermore", "zipCode": "94550" },
    { "name": "Antioch", "zipCode": "94509" },
    { "name": "Temecula", "zipCode": "92590" },
    { "name": "Clovis", "zipCode": "93611" },
    { "name": "Burbank", "zipCode": "91501" },
    { "name": "Daly City", "zipCode": "94015" },
    { "name": "Santa Clara", "zipCode": "95050" },
    { "name": "Ventura", "zipCode": "93001" },
    { "name": "West Covina", "zipCode": "91790" },
    { "name": "Norwalk", "zipCode": "90650" },
    { "name": "San Mateo", "zipCode": "94401" },
    { "name": "Perris", "zipCode": "92570" },
    { "name": "Richmond", "zipCode": "94801" }
  ],
  "Arizona": [
    { "name": "Phoenix", "zipCode": "85001" },
    { "name": "Tucson", "zipCode": "85701" },
    { "name": "Mesa", "zipCode": "85201" },
    { "name": "Chandler", "zipCode": "85224" },
    { "name": "Scottsdale", "zipCode": "85251" },
    { "name": "Glendale", "zipCode": "85301" },
    { "name": "Gilbert", "zipCode": "85233" },
    { "name": "Tempe", "zipCode": "85281" },
    { "name": "Peoria", "zipCode": "85345" },
    { "name": "Surprise", "zipCode": "85374" },
    { "name": "Yuma", "zipCode": "85364" },
    { "name": "Flagstaff", "zipCode": "86001" },
    { "name": "Prescott", "zipCode": "86301" }
  ],
  "Colorado": [
    { "name": "Denver", "zipCode": "80201" },
    { "name": "Colorado Springs", "zipCode": "80901" },
    { "name": "Aurora", "zipCode": "80010" },
    { "name": "Fort Collins", "zipCode": "80521" },
    { "name": "Lakewood", "zipCode": "80226" },
    { "name": "Thornton", "zipCode": "80229" },
    { "name": "Arvada", "zipCode": "80002" },
    { "name": "Westminster", "zipCode": "80030" },
    { "name": "Pueblo", "zipCode": "81001" },
    { "name": "Centennial", "zipCode": "80122" },
    { "name": "Boulder", "zipCode": "80302" },
    { "name": "Greeley", "zipCode": "80631" },
    { "name": "Longmont", "zipCode": "80501" }
  ],
  "Idaho": [
    { "name": "Boise", "zipCode": "83701" },
    { "name": "Meridian", "zipCode": "83642" },
    { "name": "Nampa", "zipCode": "83651" },
    { "name": "Idaho Falls", "zipCode": "83401" },
    { "name": "Pocatello", "zipCode": "83201" },
    { "name": "Caldwell", "zipCode": "83605" },
    { "name": "Coeur d'Alene", "zipCode": "83814" },
    { "name": "Twin Falls", "zipCode": "83301" }
  ],
  "Montana": [
    { "name": "Billings", "zipCode": "59101" },
    { "name": "Missoula", "zipCode": "59801" },
    { "name": "Great Falls", "zipCode": "59401" },
    { "name": "Bozeman", "zipCode": "59715" },
    { "name": "Butte", "zipCode": "59701" },
    { "name": "Helena", "zipCode": "59601" },
    { "name": "Kalispell", "zipCode": "59901" }
  ],
  "Nevada": [
    { "name": "Las Vegas", "zipCode": "89101" },
    { "name": "Henderson", "zipCode": "89002" },
    { "name": "Reno", "zipCode": "89501" },
    { "name": "North Las Vegas", "zipCode": "89030" },
    { "name": "Sparks", "zipCode": "89431" },
    { "name": "Carson City", "zipCode": "89701" }
  ],
  "NewMexico": [
    { "name": "Albuquerque", "zipCode": "87101" },
    { "name": "Las Cruces", "zipCode": "88001" },
    { "name": "Santa Fe", "zipCode": "87501" },
    { "name": "Rio Rancho", "zipCode": "87124" },
    { "name": "Roswell", "zipCode": "88201" },
    { "name": "Farmington", "zipCode": "87401" },
    { "name": "Clovis", "zipCode": "88101" },
    { "name": "Alamogordo", "zipCode": "88310" }
  ],
  "Oregon": [
    { "name": "Portland", "zipCode": "97201" },
    { "name": "Salem", "zipCode": "97301" },
    { "name": "Eugene", "zipCode": "97401" },
    { "name": "Gresham", "zipCode": "97030" },
    { "name": "Hillsboro", "zipCode": "97123" },
    { "name": "Beaverton", "zipCode": "97005" },
    { "name": "Bend", "zipCode": "97701" },
    { "name": "Medford", "zipCode": "97501" },
    { "name": "Springfield", "zipCode": "97477" }
  ],
  "Utah": [
    { "name": "Salt Lake City", "zipCode": "84101" },
    { "name": "West Valley City", "zipCode": "84119" },
    { "name": "Provo", "zipCode": "84601" },
    { "name": "West Jordan", "zipCode": "84084" },
    { "name": "Orem", "zipCode": "84057" },
    { "name": "Sandy", "zipCode": "84070" },
    { "name": "Ogden", "zipCode": "84401" },
    { "name": "St. George", "zipCode": "84770" }
  ],
  "Washington": [
    { "name": "Seattle", "zipCode": "98101" },
    { "name": "Spokane", "zipCode": "99201" },
    { "name": "Tacoma", "zipCode": "98402" },
    { "name": "Vancouver", "zipCode": "98660" },
    { "name": "Bellevue", "zipCode": "98004" },
    { "name": "Kent", "zipCode": "98030" },
    { "name": "Everett", "zipCode": "98201" },
    { "name": "Renton", "zipCode": "98055" },
    { "name": "Yakima", "zipCode": "98901" }
  ],
  "Wyoming": [
    { "name": "Cheyenne", "zipCode": "82001" },
    { "name": "Casper", "zipCode": "82601" },
    { "name": "Laramie", "zipCode": "82070" },
    { "name": "Gillette", "zipCode": "82716" },
    { "name": "Rock Springs", "zipCode": "82901" },
    { "name": "Sheridan", "zipCode": "82801" }
  ],
  "Alaska": [
    { "name": "Anchorage", "zipCode": "99501" },
    { "name": "Fairbanks", "zipCode": "99701" },
    { "name": "Juneau", "zipCode": "99801" },
    { "name": "Wasilla", "zipCode": "99654" },
    { "name": "Ketchikan", "zipCode": "99901" },
    { "name": "Kenai", "zipCode": "99611" }
  ],
  "Hawaii": [
    { "name": "Honolulu", "zipCode": "96813" },
    { "name": "Hilo", "zipCode": "96720" },
    { "name": "Kailua", "zipCode": "96734" },
    { "name": "Pearl City", "zipCode": "96782" },
    { "name": "Kahului", "zipCode": "96732" },
    { "name": "Kaneohe", "zipCode": "96744" }
  ],
  "Louisiana": [
    { "name": "New Orleans", "zipCode": "70112" },
    { "name": "Baton Rouge", "zipCode": "70802" },
    { "name": "Shreveport", "zipCode": "71101" },
    { "name": "Lafayette", "zipCode": "70501" },
    { "name": "Lake Charles", "zipCode": "70601" },
    { "name": "Kenner", "zipCode": "70062" },
    { "name": "Bossier City", "zipCode": "71111" },
    { "name": "Monroe", "zipCode": "71201" },
    { "name": "Alexandria", "zipCode": "71301" }
  ],
  "Oklahoma": [
    { "name": "Oklahoma City", "zipCode": "73102" },
    { "name": "Tulsa", "zipCode": "74103" },
    { "name": "Norman", "zipCode": "73069" },
    { "name": "Broken Arrow", "zipCode": "74012" },
    { "name": "Lawton", "zipCode": "73501" },
    { "name": "Edmond", "zipCode": "73003" },
    { "name": "Moore", "zipCode": "73160" },
    { "name": "Midwest City", "zipCode": "73110" },
    { "name": "Stillwater", "zipCode": "74074" }
  ],
  "Texas": [
    { "name": "Houston", "zipCode": "77002" },
    { "name": "San Antonio", "zipCode": "78205" },
    { "name": "Dallas", "zipCode": "75201" },
    { "name": "Austin", "zipCode": "78701" },
    { "name": "Fort Worth", "zipCode": "76102" },
    { "name": "El Paso", "zipCode": "79901" },
    { "name": "Arlington", "zipCode": "76010" },
    { "name": "Corpus Christi", "zipCode": "78401" },
    { "name": "Plano", "zipCode": "75023" },
    { "name": "Laredo", "zipCode": "78040" },
    { "name": "Lubbock", "zipCode": "79401" },
    { "name": "Garland", "zipCode": "75040" },
    { "name": "Irving", "zipCode": "75014" },
    { "name": "Amarillo", "zipCode": "79101" },
    { "name": "Grand Prairie", "zipCode": "75050" },
    { "name": "Brownsville", "zipCode": "78520" },
    { "name": "McKinney", "zipCode": "75069" },
    { "name": "Frisco", "zipCode": "75034" },
    { "name": "Pasadena", "zipCode": "77502" },
    { "name": "Killeen", "zipCode": "76541" },
    { "name": "Mesquite", "zipCode": "75149" }
  ],
  "Michigan": [
    { "name": "Detroit", "zipCode": "48201" },
    { "name": "Grand Rapids", "zipCode": "49503" },
    { "name": "Warren", "zipCode": "48091" },
    { "name": "Sterling Heights", "zipCode": "48310" },
    { "name": "Ann Arbor", "zipCode": "48103" },
    { "name": "Lansing", "zipCode": "48901" },
    { "name": "Dearborn", "zipCode": "48120" },
    { "name": "Livonia", "zipCode": "48150" },
    { "name": "Troy", "zipCode": "48083" },
    { "name": "Farmington Hills", "zipCode": "48331" },
    { "name": "Kalamazoo", "zipCode": "49001" }
  ],
  "Ohio": [
    { "name": "Columbus", "zipCode": "43215" },
    { "name": "Cleveland", "zipCode": "44113" },
    { "name": "Cincinnati", "zipCode": "45202" },
    { "name": "Toledo", "zipCode": "43604" },
    { "name": "Akron", "zipCode": "44304" },
    { "name": "Dayton", "zipCode": "45402" },
    { "name": "Parma", "zipCode": "44129" },
    { "name": "Canton", "zipCode": "44702" },
    { "name": "Youngstown", "zipCode": "44502" },
    { "name": "Lorain", "zipCode": "44052" },
    { "name": "Hamilton", "zipCode": "45011" }
  ],
  "Illinois": [
    { "name": "Chicago", "zipCode": "60601" },
    { "name": "Aurora", "zipCode": "60505" },
    { "name": "Rockford", "zipCode": "61101" },
    { "name": "Joliet", "zipCode": "60431" },
    { "name": "Naperville", "zipCode": "60540" },
    { "name": "Springfield", "zipCode": "62701" },
    { "name": "Peoria", "zipCode": "61602" },
    { "name": "Elgin", "zipCode": "60120" },
    { "name": "Waukegan", "zipCode": "60085" },
    { "name": "Champaign", "zipCode": "61820" },
    { "name": "Bloomington", "zipCode": "61701" },
    { "name": "Arlington Heights", "zipCode": "60004" },
    { "name": "Evanston", "zipCode": "60201" }
  ],
  "Indiana": [
    { "name": "Indianapolis", "zipCode": "46201" },
    { "name": "Fort Wayne", "zipCode": "46802" },
    { "name": "Evansville", "zipCode": "47708" },
    { "name": "South Bend", "zipCode": "46601" },
    { "name": "Carmel", "zipCode": "46032" },
    { "name": "Bloomington", "zipCode": "47401" },
    { "name": "Hammond", "zipCode": "46320" },
    { "name": "Gary", "zipCode": "46402" },
    { "name": "Lafayette", "zipCode": "47901" },
    { "name": "Fishers", "zipCode": "46037" },
    { "name": "Muncie", "zipCode": "47302" }
  ],
  "Wisconsin": [
    { "name": "Milwaukee", "zipCode": "53202" },
    { "name": "Madison", "zipCode": "53703" },
    { "name": "Green Bay", "zipCode": "54301" },
    { "name": "Kenosha", "zipCode": "53140" },
    { "name": "Racine", "zipCode": "53402" },
    { "name": "Appleton", "zipCode": "54911" },
    { "name": "Waukesha", "zipCode": "53186" },
    { "name": "Eau Claire", "zipCode": "54701" },
    { "name": "Oshkosh", "zipCode": "54901" },
    { "name": "Janesville", "zipCode": "53545" },
    { "name": "La Crosse", "zipCode": "54601" }
  ],
  "Minnesota": [
    { "name": "Minneapolis", "zipCode": "55401" },
    { "name": "Saint Paul", "zipCode": "55101" },
    { "name": "Rochester", "zipCode": "55901" },
    { "name": "Duluth", "zipCode": "55802" },
    { "name": "Bloomington", "zipCode": "55431" },
    { "name": "Brooklyn Park", "zipCode": "55443" },
    { "name": "Plymouth", "zipCode": "55447" },
    { "name": "Saint Cloud", "zipCode": "56301" },
    { "name": "Eagan", "zipCode": "55121" },
    { "name": "Woodbury", "zipCode": "55125" }
  ],
  "Iowa": [
    { "name": "Des Moines", "zipCode": "50309" },
    { "name": "Cedar Rapids", "zipCode": "52401" },
    { "name": "Davenport", "zipCode": "52801" },
    { "name": "Sioux City", "zipCode": "51101" },
    { "name": "Waterloo", "zipCode": "50701" },
    { "name": "Iowa City", "zipCode": "52240" },
    { "name": "Ames", "zipCode": "50010" },
    { "name": "Council Bluffs", "zipCode": "51501" },
    { "name": "Dubuque", "zipCode": "52001" }
  ],
  "Missouri": [
    { "name": "Kansas City", "zipCode": "64106" },
    { "name": "St. Louis", "zipCode": "63101" },
    { "name": "Springfield", "zipCode": "65802" },
    { "name": "Independence", "zipCode": "64050" },
    { "name": "Columbia", "zipCode": "65201" },
    { "name": "Lee's Summit", "zipCode": "64063" },
    { "name": "O'Fallon", "zipCode": "63366" },
    { "name": "St. Joseph", "zipCode": "64501" },
    { "name": "St. Charles", "zipCode": "63301" },
    { "name": "Blue Springs", "zipCode": "64015" }
  ],
  "Kansas": [
    { "name": "Wichita", "zipCode": "67202" },
    { "name": "Overland Park", "zipCode": "66210" },
    { "name": "Kansas City", "zipCode": "66101" },
    { "name": "Olathe", "zipCode": "66061" },
    { "name": "Topeka", "zipCode": "66604" },
    { "name": "Lawrence", "zipCode": "66044" },
    { "name": "Manhattan", "zipCode": "66502" },
    { "name": "Lenexa", "zipCode": "66215" },
    { "name": "Salina", "zipCode": "67401" }
  ],
  "Nebraska": [
    { "name": "Omaha", "zipCode": "68102" },
    { "name": "Lincoln", "zipCode": "68508" },
    { "name": "Bellevue", "zipCode": "68005" },
    { "name": "Grand Island", "zipCode": "68801" },
    { "name": "Kearney", "zipCode": "68845" },
    { "name": "Fremont", "zipCode": "68025" },
    { "name": "Norfolk", "zipCode": "68701" },
    { "name": "North Platte", "zipCode": "69101" }
  ],
  "SouthDakota": [
    { "name": "Sioux Falls", "zipCode": "57104" },
    { "name": "Rapid City", "zipCode": "57701" },
    { "name": "Aberdeen", "zipCode": "57401" },
    { "name": "Brookings", "zipCode": "57006" },
    { "name": "Watertown", "zipCode": "57201" }
  ],
  "NorthDakota": [
    { "name": "Fargo", "zipCode": "58102" },
    { "name": "Bismarck", "zipCode": "58501" },
    { "name": "Grand Forks", "zipCode": "58201" },
    { "name": "Minot", "zipCode": "58701" },
    { "name": "West Fargo", "zipCode": "58078" }
  ],
  "Alabama": [
    { "name": "Birmingham", "zipCode": "35203" },
    { "name": "Montgomery", "zipCode": "36104" },
    { "name": "Huntsville", "zipCode": "35801" },
    { "name": "Mobile", "zipCode": "36602" },
    { "name": "Tuscaloosa", "zipCode": "35401" },
    { "name": "Auburn", "zipCode": "36830" },
    { "name": "Dothan", "zipCode": "36301" },
    { "name": "Hoover", "zipCode": "35216" },
    { "name": "Decatur", "zipCode": "35601" },
    { "name": "Madison", "zipCode": "35758" }
  ],
  "Arkansas": [
    { "name": "Little Rock", "zipCode": "72201" },
    { "name": "Fort Smith", "zipCode": "72901" },
    { "name": "Fayetteville", "zipCode": "72701" },
    { "name": "Springdale", "zipCode": "72764" },
    { "name": "Jonesboro", "zipCode": "72401" },
    { "name": "Conway", "zipCode": "72032" },
    { "name": "Rogers", "zipCode": "72756" },
    { "name": "North Little Rock", "zipCode": "72114" }
  ],
  "Florida": [
    { "name": "Jacksonville", "zipCode": "32202" },
    { "name": "Miami", "zipCode": "33101" },
    { "name": "Tampa", "zipCode": "33602" },
    { "name": "Orlando", "zipCode": "32801" },
    { "name": "St. Petersburg", "zipCode": "33701" },
    { "name": "Hialeah", "zipCode": "33010" },
    { "name": "Tallahassee", "zipCode": "32301" },
    { "name": "Fort Lauderdale", "zipCode": "33301" },
    { "name": "Cape Coral", "zipCode": "33904" },
    { "name": "Port St. Lucie", "zipCode": "34952" },
    { "name": "Pembroke Pines", "zipCode": "33024" },
    { "name": "Clearwater", "zipCode": "33755" },
    { "name": "Gainesville", "zipCode": "32601" },
    { "name": "Miramar", "zipCode": "33023" },
    { "name": "Lakeland", "zipCode": "33801" },
    { "name": "Naples", "zipCode": "34102" },
    { "name": "Daytona Beach", "zipCode": "32114" }
  ],
  "Georgia": [
    { "name": "Atlanta", "zipCode": "30303" },
    { "name": "Columbus", "zipCode": "31901" },
    { "name": "Augusta", "zipCode": "30901" },
    { "name": "Macon", "zipCode": "31201" },
    { "name": "Savannah", "zipCode": "31401" },
    { "name": "Athens", "zipCode": "30601" },
    { "name": "Sandy Springs", "zipCode": "30328" },
    { "name": "Roswell", "zipCode": "30075" },
    { "name": "Johns Creek", "zipCode": "30022" },
    { "name": "Warner Robins", "zipCode": "31088" },
    { "name": "Alpharetta", "zipCode": "30004" },
    { "name": "Marietta", "zipCode": "30060" },
    { "name": "Valdosta", "zipCode": "31601" }
  ],
  "Kentucky": [
    { "name": "Louisville", "zipCode": "40202" },
    { "name": "Lexington", "zipCode": "40502" },
    { "name": "Bowling Green", "zipCode": "42101" },
    { "name": "Owensboro", "zipCode": "42301" },
    { "name": "Covington", "zipCode": "41011" },
    { "name": "Hopkinsville", "zipCode": "42240" },
    { "name": "Richmond", "zipCode": "40475" },
    { "name": "Florence", "zipCode": "41042" },
    { "name": "Nicholasville", "zipCode": "40356" }
  ],
  "Mississippi": [
    { "name": "Jackson", "zipCode": "39201" },
    { "name": "Gulfport", "zipCode": "39501" },
    { "name": "Hattiesburg", "zipCode": "39401" },
    { "name": "Southaven", "zipCode": "38671" },
    { "name": "Biloxi", "zipCode": "39530" },
    { "name": "Meridian", "zipCode": "39301" },
    { "name": "Tupelo", "zipCode": "38801" },
    { "name": "Vicksburg", "zipCode": "39180" },
    { "name": "Oxford", "zipCode": "38655" }
  ],
  "NorthCarolina": [
    { "name": "Charlotte", "zipCode": "28202" },
    { "name": "Raleigh", "zipCode": "27601" },
    { "name": "Greensboro", "zipCode": "27401" },
    { "name": "Durham", "zipCode": "27701" },
    { "name": "Winston-Salem", "zipCode": "27101" },
    { "name": "Fayetteville", "zipCode": "28301" },
    { "name": "Cary", "zipCode": "27511" },
    { "name": "Wilmington", "zipCode": "28401" },
    { "name": "High Point", "zipCode": "27262" },
    { "name": "Concord", "zipCode": "28025" },
    { "name": "Asheville", "zipCode": "28801" }
  ],
  "SouthCarolina": [
    { "name": "Columbia", "zipCode": "29201" },
    { "name": "Charleston", "zipCode": "29401" },
    { "name": "North Charleston", "zipCode": "29405" },
    { "name": "Mount Pleasant", "zipCode": "29464" },
    { "name": "Rock Hill", "zipCode": "29730" },
    { "name": "Greenville", "zipCode": "29601" },
    { "name": "Summerville", "zipCode": "29483" },
    { "name": "Hilton Head Island", "zipCode": "29928" },
    { "name": "Spartanburg", "zipCode": "29301" },
    { "name": "Florence", "zipCode": "29501" }
  ],
  "Tennessee": [
    { "name": "Memphis", "zipCode": "38103" },
    { "name": "Nashville", "zipCode": "37203" },
    { "name": "Knoxville", "zipCode": "37902" },
    { "name": "Chattanooga", "zipCode": "37402" },
    { "name": "Clarksville", "zipCode": "37040" },
    { "name": "Murfreesboro", "zipCode": "37130" },
    { "name": "Johnson City", "zipCode": "37601" },
    { "name": "Franklin", "zipCode": "37064" },
    { "name": "Jackson", "zipCode": "38301" },
    { "name": "Kingsport", "zipCode": "37660" },
    { "name": "Hendersonville", "zipCode": "37075" }
  ],
  "Virginia": [
    { "name": "Virginia Beach", "zipCode": "23451" },
    { "name": "Norfolk", "zipCode": "23503" },
    { "name": "Chesapeake", "zipCode": "23320" },
    { "name": "Richmond", "zipCode": "23219" },
    { "name": "Newport News", "zipCode": "23601" },
    { "name": "Alexandria", "zipCode": "22301" },
    { "name": "Hampton", "zipCode": "23661" },
    { "name": "Roanoke", "zipCode": "24011" },
    { "name": "Portsmouth", "zipCode": "23701" },
    { "name": "Lynchburg", "zipCode": "24501" },
    { "name": "Charlottesville", "zipCode": "22903" }
  ],
  "WestVirginia": [
    { "name": "Charleston", "zipCode": "25301" },
    { "name": "Huntington", "zipCode": "25701" },
    { "name": "Morgantown", "zipCode": "26505" },
    { "name": "Parkersburg", "zipCode": "26101" },
    { "name": "Wheeling", "zipCode": "26003" },
    { "name": "Fairmont", "zipCode": "26554" },
    { "name": "Beckley", "zipCode": "25801" },
    { "name": "Martinsburg", "zipCode": "25401" }
  ],
  "Connecticut": [
    { "name": "Bridgeport", "zipCode": "06604" },
    { "name": "New Haven", "zipCode": "06510" },
    { "name": "Hartford", "zipCode": "06103" },
    { "name": "Stamford", "zipCode": "06901" },
    { "name": "Waterbury", "zipCode": "06702" },
    { "name": "Norwalk", "zipCode": "06851" },
    { "name": "Danbury", "zipCode": "06810" },
    { "name": "New Britain", "zipCode": "06051" },
    { "name": "Meriden", "zipCode": "06450" },
    { "name": "Bristol", "zipCode": "06010" }
  ],
  "Delaware": [
    { "name": "Wilmington", "zipCode": "19801" },
    { "name": "Dover", "zipCode": "19901" },
    { "name": "Newark", "zipCode": "19711" },
    { "name": "Middletown", "zipCode": "19709" },
    { "name": "Smyrna", "zipCode": "19977" },
    { "name": "Bear", "zipCode": "19701" }
  ],
  "Maine": [
    { "name": "Portland", "zipCode": "04101" },
    { "name": "Lewiston", "zipCode": "04240" },
    { "name": "Bangor", "zipCode": "04401" },
    { "name": "South Portland", "zipCode": "04106" },
    { "name": "Auburn", "zipCode": "04210" },
    { "name": "Biddeford", "zipCode": "04005" }
  ],
  "Maryland": [
    { "name": "Baltimore", "zipCode": "21201" },
    { "name": "Columbia", "zipCode": "21044" },
    { "name": "Germantown", "zipCode": "20874" },
    { "name": "Silver Spring", "zipCode": "20901" },
    { "name": "Waldorf", "zipCode": "20601" },
    { "name": "Glen Burnie", "zipCode": "21061" },
    { "name": "Ellicott City", "zipCode": "21043" },
    { "name": "Frederick", "zipCode": "21701" },
    { "name": "Gaithersburg", "zipCode": "20877" }
  ],
  "Massachusetts": [
    { "name": "Boston", "zipCode": "02108" },
    { "name": "Worcester", "zipCode": "01608" },
    { "name": "Springfield", "zipCode": "01103" },
    { "name": "Lowell", "zipCode": "01852" },
    { "name": "Cambridge", "zipCode": "02138" },
    { "name": "New Bedford", "zipCode": "02740" },
    { "name": "Brockton", "zipCode": "02301" },
    { "name": "Quincy", "zipCode": "02169" },
    { "name": "Lynn", "zipCode": "01902" },
    { "name": "Newton", "zipCode": "02458" },
    { "name": "Fall River", "zipCode": "02720" },
    { "name": "Somerville", "zipCode": "02143" }
  ],
  "NewHampshire": [
    { "name": "Manchester", "zipCode": "03101" },
    { "name": "Nashua", "zipCode": "03060" },
    { "name": "Concord", "zipCode": "03301" },
    { "name": "Derry", "zipCode": "03038" },
    { "name": "Dover", "zipCode": "03820" },
    { "name": "Rochester", "zipCode": "03867" }
  ],
  "NewJersey": [
    { "name": "Newark", "zipCode": "07102" },
    { "name": "Jersey City", "zipCode": "07302" },
    { "name": "Paterson", "zipCode": "07501" },
    { "name": "Elizabeth", "zipCode": "07201" },
    { "name": "Edison", "zipCode": "08817" },
    { "name": "Woodbridge", "zipCode": "07095" },
    { "name": "Toms River", "zipCode": "08753" },
    { "name": "Hamilton", "zipCode": "08610" },
    { "name": "Clifton", "zipCode": "07011" },
    { "name": "Brick", "zipCode": "08723" },
    { "name": "Cherry Hill", "zipCode": "08002" }
  ],
  "NewYork": [
    { "name": "New York City", "zipCode": "10001" },
    { "name": "Manhattan", "zipCode": "10001" },
    { "name": "Brooklyn", "zipCode": "11201" },
    { "name": "Queens", "zipCode": "11354" },
    { "name": "The Bronx", "zipCode": "10451" },
    { "name": "Staten Island", "zipCode": "10301" },
    { "name": "Buffalo", "zipCode": "14202" },
    { "name": "Rochester", "zipCode": "14604" },
    { "name": "Yonkers", "zipCode": "10701" },
    { "name": "Syracuse", "zipCode": "13202" },
    { "name": "Albany", "zipCode": "12203" },
    { "name": "New Rochelle", "zipCode": "10801" },
    { "name": "Mount Vernon", "zipCode": "10550" },
    { "name": "Schenectady", "zipCode": "12305" },
    { "name": "Utica", "zipCode": "13501" },
    { "name": "Niagara Falls", "zipCode": "14301" }
  ],
  "Pennsylvania": [
    { "name": "Philadelphia", "zipCode": "19102" },
    { "name": "Pittsburgh", "zipCode": "15219" },
    { "name": "Allentown", "zipCode": "18102" },
    { "name": "Erie", "zipCode": "16501" },
    { "name": "Reading", "zipCode": "19601" },
    { "name": "Scranton", "zipCode": "18503" },
    { "name": "Bethlehem", "zipCode": "18015" },
    { "name": "Lancaster", "zipCode": "17602" },
    { "name": "Harrisburg", "zipCode": "17101" },
    { "name": "York", "zipCode": "17401" },
    { "name": "Altoona", "zipCode": "16601" }
  ],
  "RhodeIsland": [
    { "name": "Providence", "zipCode": "02903" },
    { "name": "Warwick", "zipCode": "02886" },
    { "name": "Cranston", "zipCode": "02910" },
    { "name": "Pawtucket", "zipCode": "02860" },
    { "name": "East Providence", "zipCode": "02914" },
    { "name": "Woonsocket", "zipCode": "02895" }
  ],
  "Vermont": [
    { "name": "Burlington", "zipCode": "05401" },
    { "name": "South Burlington", "zipCode": "05403" },
    { "name": "Rutland", "zipCode": "05701" },
    { "name": "Essex", "zipCode": "05452" },
    { "name": "Bennington", "zipCode": "05201" }
  ],
  "WashingtonDC": [
    { "name": "Washington D.C.", "zipCode": "20001" },
    { "name": "Northeast", "zipCode": "20002" },
    { "name": "Northwest", "zipCode": "20007" },
    { "name": "Southeast", "zipCode": "20019" },
    { "name": "Southwest", "zipCode": "20024" }
  ],
  "Taiwan": [
    {
      "name": "基隆市",
      "zipCode": "200",
      "districts": [
        { "name": "仁愛區", "zipCode": "200" },
        { "name": "信義區", "zipCode": "201" },
        { "name": "中正區", "zipCode": "202" },
        { "name": "中山區", "zipCode": "203" },
        { "name": "安樂區", "zipCode": "204" },
        { "name": "暖暖區", "zipCode": "205" },
        { "name": "七堵區", "zipCode": "206" }
      ]
    },
    {
      "name": "台北市",
      "zipCode": "100",
      "districts": [
        { "name": "中正區", "zipCode": "100" },
        { "name": "大同區", "zipCode": "103" },
        { "name": "中山區", "zipCode": "104" },
        { "name": "松山區", "zipCode": "105" },
        { "name": "大安區", "zipCode": "106" },
        { "name": "萬華區", "zipCode": "108" },
        { "name": "信義區", "zipCode": "110" },
        { "name": "士林區", "zipCode": "111" },
        { "name": "北投區", "zipCode": "112" },
        { "name": "內湖區", "zipCode": "114" },
        { "name": "南港區", "zipCode": "115" },
        { "name": "文山區", "zipCode": "116" }
      ]
    },
    {
      "name": "新北市",
      "zipCode": "220",
      "districts": [
        { "name": "板橋區", "zipCode": "220" },
        { "name": "汐止區", "zipCode": "221" },
        { "name": "深坑區", "zipCode": "222" },
        { "name": "石碇區", "zipCode": "223" },
        { "name": "瑞芳區", "zipCode": "224" },
        { "name": "平溪區", "zipCode": "226" },
        { "name": "雙溪區", "zipCode": "227" },
        { "name": "貢寮區", "zipCode": "228" },
        { "name": "新店區", "zipCode": "231" },
        { "name": "坪林區", "zipCode": "232" },
        { "name": "烏來區", "zipCode": "233" },
        { "name": "永和區", "zipCode": "234" },
        { "name": "中和區", "zipCode": "235" },
        { "name": "土城區", "zipCode": "236" },
        { "name": "三峽區", "zipCode": "237" },
        { "name": "樹林區", "zipCode": "238" },
        { "name": "鶯歌區", "zipCode": "239" },
        { "name": "三重區", "zipCode": "241" },
        { "name": "新莊區", "zipCode": "242" },
        { "name": "泰山區", "zipCode": "243" },
        { "name": "林口區", "zipCode": "244" },
        { "name": "蘆洲區", "zipCode": "247" },
        { "name": "五股區", "zipCode": "248" },
        { "name": "八里區", "zipCode": "249" },
        { "name": "淡水區", "zipCode": "251" },
        { "name": "三芝區", "zipCode": "252" },
        { "name": "石門區", "zipCode": "253" },
        { "name": "萬里區", "zipCode": "207" },
        { "name": "金山區", "zipCode": "208" }
      ]
    },
    {
      "name": "桃園市",
      "zipCode": "320",
      "districts": [
        { "name": "中壢區", "zipCode": "320" },
        { "name": "平鎮區", "zipCode": "324" },
        { "name": "龍潭區", "zipCode": "325" },
        { "name": "楊梅區", "zipCode": "326" },
        { "name": "新屋區", "zipCode": "327" },
        { "name": "觀音區", "zipCode": "328" },
        { "name": "桃園區", "zipCode": "330" },
        { "name": "龜山區", "zipCode": "333" },
        { "name": "八德區", "zipCode": "334" },
        { "name": "大溪區", "zipCode": "335" },
        { "name": "復興區", "zipCode": "336" },
        { "name": "大園區", "zipCode": "337" },
        { "name": "蘆竹區", "zipCode": "338" }
      ]
    },
    {
      "name": "台中市",
      "zipCode": "400",
      "districts": [
        { "name": "中區", "zipCode": "400" },
        { "name": "東區", "zipCode": "401" },
        { "name": "南區", "zipCode": "402" },
        { "name": "西區", "zipCode": "403" },
        { "name": "北區", "zipCode": "404" },
        { "name": "北屯區", "zipCode": "406" },
        { "name": "西屯區", "zipCode": "407" },
        { "name": "南屯區", "zipCode": "408" },
        { "name": "太平區", "zipCode": "411" },
        { "name": "大里區", "zipCode": "412" },
        { "name": "霧峰區", "zipCode": "413" },
        { "name": "烏日區", "zipCode": "414" },
        { "name": "豐原區", "zipCode": "420" },
        { "name": "后里區", "zipCode": "421" },
        { "name": "石岡區", "zipCode": "422" },
        { "name": "東勢區", "zipCode": "423" },
        { "name": "和平區", "zipCode": "424" },
        { "name": "新社區", "zipCode": "426" },
        { "name": "潭子區", "zipCode": "427" },
        { "name": "大雅區", "zipCode": "428" },
        { "name": "神岡區", "zipCode": "429" },
        { "name": "大肚區", "zipCode": "432" },
        { "name": "沙鹿區", "zipCode": "433" },
        { "name": "龍井區", "zipCode": "434" },
        { "name": "梧棲區", "zipCode": "435" },
        { "name": "清水區", "zipCode": "436" },
        { "name": "大甲區", "zipCode": "437" },
        { "name": "外埔區", "zipCode": "438" },
        { "name": "大安區", "zipCode": "439" }
      ]
    },
    {
      "name": "高雄市",
      "zipCode": "800",
      "districts": [
        { "name": "新興區", "zipCode": "800" },
        { "name": "前金區", "zipCode": "801" },
        { "name": "苓雅區", "zipCode": "802" },
        { "name": "鹽埕區", "zipCode": "803" },
        { "name": "鼓山區", "zipCode": "804" },
        { "name": "旗津區", "zipCode": "805" },
        { "name": "前鎮區", "zipCode": "806" },
        { "name": "三民區", "zipCode": "807" },
        { "name": "楠梓區", "zipCode": "811" },
        { "name": "小港區", "zipCode": "812" },
        { "name": "左營區", "zipCode": "813" },
        { "name": "仁武區", "zipCode": "814" },
        { "name": "大社區", "zipCode": "815" },
        { "name": "岡山區", "zipCode": "820" },
        { "name": "路竹區", "zipCode": "821" },
        { "name": "阿蓮區", "zipCode": "822" },
        { "name": "田寮區", "zipCode": "823" },
        { "name": "燕巢區", "zipCode": "824" },
        { "name": "橋頭區", "zipCode": "825" },
        { "name": "梓官區", "zipCode": "826" },
        { "name": "彌陀區", "zipCode": "827" },
        { "name": "永安區", "zipCode": "828" },
        { "name": "湖內區", "zipCode": "829" },
        { "name": "鳳山區", "zipCode": "830" },
        { "name": "茄萣區", "zipCode": "831" },
        { "name": "大寮區", "zipCode": "831" },
        { "name": "林園區", "zipCode": "832" },
        { "name": "鳥松區", "zipCode": "833" },
        { "name": "大樹區", "zipCode": "840" },
        { "name": "旗山區", "zipCode": "842" },
        { "name": "美濃區", "zipCode": "843" },
        { "name": "六龜區", "zipCode": "844" },
        { "name": "甲仙區", "zipCode": "845" },
        { "name": "杉林區", "zipCode": "846" },
        { "name": "內門區", "zipCode": "847" },
        { "name": "茂林區", "zipCode": "851" },
        { "name": "桃源區", "zipCode": "852" },
        { "name": "那瑪夏區", "zipCode": "853" }
      ]
    },
    {
      "name": "宜蘭縣",
      "zipCode": "260",
      "districts": [
        { "name": "宜蘭市", "zipCode": "260" },
        { "name": "頭城鎮", "zipCode": "261" },
        { "name": "礁溪鄉", "zipCode": "262" },
        { "name": "壯圍鄉", "zipCode": "263" },
        { "name": "員山鄉", "zipCode": "264" },
        { "name": "羅東鎮", "zipCode": "265" },
        { "name": "冬山鄉", "zipCode": "266" },
        { "name": "三星鄉", "zipCode": "267" },
        { "name": "五結鄉", "zipCode": "268" },
        { "name": "蘇澳鎮", "zipCode": "270" },
        { "name": "大同鄉", "zipCode": "272" },
        { "name": "南澳鄉", "zipCode": "272" }
      ]
    },
    {
      "name": "花蓮縣",
      "zipCode": "970",
      "districts": [
        { "name": "花蓮市", "zipCode": "970" },
        { "name": "新城鄉", "zipCode": "971" },
        { "name": "吉安鄉", "zipCode": "973" },
        { "name": "壽豐鄉", "zipCode": "974" },
        { "name": "鳳林鎮", "zipCode": "975" },
        { "name": "光復鄉", "zipCode": "976" },
        { "name": "豐濱鄉", "zipCode": "977" },
        { "name": "瑞穗鄉", "zipCode": "978" },
        { "name": "玉里鎮", "zipCode": "981" },
        { "name": "卓溪鄉", "zipCode": "982" },
        { "name": "富里鄉", "zipCode": "983" }
      ]
    },
    {
      "name": "台東縣",
      "zipCode": "950",
      "districts": [
        { "name": "台東市", "zipCode": "950" },
        { "name": "綠島鄉", "zipCode": "951" },
        { "name": "蘭嶼鄉", "zipCode": "952" },
        { "name": "卑南鄉", "zipCode": "954" },
        { "name": "鹿野鄉", "zipCode": "955" },
        { "name": "關山鎮", "zipCode": "956" },
        { "name": "池上鄉", "zipCode": "958" },
        { "name": "東河鄉", "zipCode": "959" },
        { "name": "成功鎮", "zipCode": "961" },
        { "name": "長濱鄉", "zipCode": "962" },
        { "name": "太麻里鄉", "zipCode": "963" },
        { "name": "金峰鄉", "zipCode": "964" },
        { "name": "大武鄉", "zipCode": "965" },
        { "name": "達仁鄉", "zipCode": "966" }
      ]
    },
    {
      "name": "屏東縣",
      "zipCode": "900",
      "districts": [
        { "name": "屏東市", "zipCode": "900" },
        { "name": "三地門鄉", "zipCode": "901" },
        { "name": "霧台鄉", "zipCode": "902" },
        { "name": "霧台鄉", "zipCode": "902" },
        { "name": "瑪家鄉", "zipCode": "903" },
        { "name": "九如鄉", "zipCode": "904" },
        { "name": "里港鄉", "zipCode": "905" },
        { "name": "高樹鄉", "zipCode": "906" },
        { "name": "鹽埔鄉", "zipCode": "907" },
        { "name": "長治鄉", "zipCode": "908" },
        { "name": "麟洛鄉", "zipCode": "909" },
        { "name": "竹田鄉", "zipCode": "911" },
        { "name": "內埔鄉", "zipCode": "912" },
        { "name": "萬丹鄉", "zipCode": "913" },
        { "name": "潮州鎮", "zipCode": "920" },
        { "name": "泰武鄉", "zipCode": "921" },
        { "name": "來義鄉", "zipCode": "922" },
        { "name": "萬巒鄉", "zipCode": "923" },
        { "name": "新埤鄉", "zipCode": "925" },
        { "name": "東港鎮", "zipCode": "928" },
        { "name": "枋寮鄉", "zipCode": "940" },
        { "name": "枋山鄉", "zipCode": "941" },
        { "name": "春日鄉", "zipCode": "942" },
        { "name": "獅子鄉", "zipCode": "943" },
        { "name": "車城鄉", "zipCode": "944" },
        { "name": "牡丹鄉", "zipCode": "945" },
        { "name": "恆春鎮", "zipCode": "946" }
      ]
    },
    {
      "name": "新竹市",
      "zipCode": "300",
      "districts": [
        { "name": "東區", "zipCode": "300" },
        { "name": "北區", "zipCode": "300" },
        { "name": "香山區", "zipCode": "300" }
      ]
    },
    {
      "name": "新竹縣",
      "zipCode": "302",
      "districts": [
        { "name": "竹北市", "zipCode": "302" },
        { "name": "湖口鄉", "zipCode": "303" },
        { "name": "新豐鄉", "zipCode": "304" },
        { "name": "新埔鎮", "zipCode": "305" },
        { "name": "關西鎮", "zipCode": "306" },
        { "name": "芎林鄉", "zipCode": "307" },
        { "name": "寶山鄉", "zipCode": "308" },
        { "name": "竹東鎮", "zipCode": "310" },
        { "name": "五峰鄉", "zipCode": "311" },
        { "name": "橫山鄉", "zipCode": "312" },
        { "name": "尖石鄉", "zipCode": "313" },
        { "name": "北埔鄉", "zipCode": "314" },
        { "name": "峨眉鄉", "zipCode": "315" }
      ]
    },
    {
      "name": "苗栗縣",
      "zipCode": "350",
      "districts": [
        { "name": "竹南鎮", "zipCode": "350" },
        { "name": "頭份市", "zipCode": "351" },
        { "name": "三灣鄉", "zipCode": "352" },
        { "name": "南庄鄉", "zipCode": "353" },
        { "name": "獅潭鄉", "zipCode": "354" },
        { "name": "後龍鎮", "zipCode": "356" },
        { "name": "通霄鎮", "zipCode": "357" },
        { "name": "苑裡鎮", "zipCode": "358" },
        { "name": "苗栗市", "zipCode": "360" },
        { "name": "造橋鄉", "zipCode": "361" },
        { "name": "頭屋鄉", "zipCode": "362" },
        { "name": "公館鄉", "zipCode": "363" },
        { "name": "大湖鄉", "zipCode": "364" },
        { "name": "泰安鄉", "zipCode": "365" },
        { "name": "銅鑼鄉", "zipCode": "366" },
        { "name": "三義鄉", "zipCode": "367" },
        { "name": "西湖鄉", "zipCode": "368" },
        { "name": "卓蘭鎮", "zipCode": "369" }
      ]
    },
    {
      "name": "彰化縣",
      "zipCode": "500",
      "districts": [
        { "name": "彰化市", "zipCode": "500" },
        { "name": "芬園鄉", "zipCode": "502" },
        { "name": "花壇鄉", "zipCode": "503" },
        { "name": "秀水鄉", "zipCode": "504" },
        { "name": "鹿港鎮", "zipCode": "505" },
        { "name": "福興鄉", "zipCode": "506" },
        { "name": "線西鄉", "zipCode": "507" },
        { "name": "和美鎮", "zipCode": "508" },
        { "name": "伸港鄉", "zipCode": "509" },
        { "name": "員林市", "zipCode": "510" },
        { "name": "社頭鄉", "zipCode": "511" },
        { "name": "永靖鄉", "zipCode": "512" },
        { "name": "埔心鄉", "zipCode": "513" },
        { "name": "溪湖鎮", "zipCode": "514" },
        { "name": "大村鄉", "zipCode": "515" },
        { "name": "埔鹽鄉", "zipCode": "516" },
        { "name": "田中鎮", "zipCode": "520" },
        { "name": "北斗鎮", "zipCode": "521" },
        { "name": "田尾鄉", "zipCode": "522" },
        { "name": "埤頭鄉", "zipCode": "523" },
        { "name": "溪州鄉", "zipCode": "524" },
        { "name": "竹塘鄉", "zipCode": "525" },
        { "name": "二林鎮", "zipCode": "526" },
        { "name": "大城鄉", "zipCode": "527" },
        { "name": "芳苑鄉", "zipCode": "528" },
        { "name": "二水鄉", "zipCode": "530" }
      ]
    },
    {
      "name": "雲林縣",
      "zipCode": "630",
      "districts": [
        { "name": "斗南鎮", "zipCode": "630" },
        { "name": "大埤鄉", "zipCode": "631" },
        { "name": "虎尾鎮", "zipCode": "632" },
        { "name": "土庫鎮", "zipCode": "633" },
        { "name": "褒忠鄉", "zipCode": "634" },
        { "name": "東勢鄉", "zipCode": "635" },
        { "name": "台西鄉", "zipCode": "636" },
        { "name": "斗六市", "zipCode": "640" },
        { "name": "林內鄉", "zipCode": "643" },
        { "name": "古坑鄉", "zipCode": "646" },
        { "name": "莿桐鄉", "zipCode": "647" },
        { "name": "西螺鎮", "zipCode": "648" },
        { "name": "崙背鄉", "zipCode": "649" },
        { "name": "二崙鄉", "zipCode": "649" },
        { "name": "北港鎮", "zipCode": "651" },
        { "name": "麥寮鄉", "zipCode": "652" },
        { "name": "水林鄉", "zipCode": "652" },
        { "name": "口湖鄉", "zipCode": "653" },
        { "name": "四湖鄉", "zipCode": "654" },
        { "name": "元長鄉", "zipCode": "655" }
      ]
    },
    {
      "name": "嘉義縣",
      "zipCode": "602",
      "districts": [
        { "name": "番路鄉", "zipCode": "602" },
        { "name": "梅山鄉", "zipCode": "603" },
        { "name": "竹崎鄉", "zipCode": "604" },
        { "name": "阿里山鄉", "zipCode": "605" },
        { "name": "中埔鄉", "zipCode": "606" },
        { "name": "大埔鄉", "zipCode": "607" },
        { "name": "水上鄉", "zipCode": "608" },
        { "name": "鹿草鄉", "zipCode": "611" },
        { "name": "太保市", "zipCode": "612" },
        { "name": "朴子市", "zipCode": "613" },
        { "name": "東石鄉", "zipCode": "614" },
        { "name": "六腳鄉", "zipCode": "615" },
        { "name": "新港鄉", "zipCode": "616" },
        { "name": "民雄鄉", "zipCode": "621" },
        { "name": "大林鎮", "zipCode": "622" },
        { "name": "溪口鄉", "zipCode": "623" },
        { "name": "義竹鄉", "zipCode": "624" },
        { "name": "布袋鎮", "zipCode": "625" }
      ]
    },
    {
      "name": "台南市",
      "zipCode": "700",
      "districts": [
        { "name": "中西區", "zipCode": "700" },
        { "name": "東區", "zipCode": "701" },
        { "name": "南區", "zipCode": "702" },
        { "name": "北區", "zipCode": "704" },
        { "name": "安平區", "zipCode": "708" },
        { "name": "安南區", "zipCode": "709" },
        { "name": "永康區", "zipCode": "710" },
        { "name": "歸仁區", "zipCode": "711" },
        { "name": "新化區", "zipCode": "712" },
        { "name": "左鎮區", "zipCode": "713" },
        { "name": "玉井區", "zipCode": "714" },
        { "name": "楠西區", "zipCode": "715" },
        { "name": "南化區", "zipCode": "716" },
        { "name": "仁德區", "zipCode": "717" },
        { "name": "關廟區", "zipCode": "718" },
        { "name": "龍崎區", "zipCode": "719" },
        { "name": "官田區", "zipCode": "720" },
        { "name": "麻豆區", "zipCode": "721" },
        { "name": "佳里區", "zipCode": "722" },
        { "name": "西港區", "zipCode": "723" },
        { "name": "七股區", "zipCode": "724" },
        { "name": "將軍區", "zipCode": "725" },
        { "name": "學甲區", "zipCode": "726" },
        { "name": "北門區", "zipCode": "727" },
        { "name": "新營區", "zipCode": "730" },
        { "name": "後壁區", "zipCode": "731" },
        { "name": "白河區", "zipCode": "732" },
        { "name": "東山區", "zipCode": "733" },
        { "name": "六甲區", "zipCode": "734" },
        { "name": "下營區", "zipCode": "735" },
        { "name": "柳營區", "zipCode": "736" },
        { "name": "鹽水區", "zipCode": "737" },
        { "name": "善化區", "zipCode": "741" },
        { "name": "大內區", "zipCode": "742" },
        { "name": "山上區", "zipCode": "743" },
        { "name": "新市區", "zipCode": "744" },
        { "name": "安定區", "zipCode": "745" }
      ]
    },
    {
      "name": "澎湖縣",
      "zipCode": "880",
      "districts": [
        { "name": "馬公市", "zipCode": "880" },
        { "name": "西嶼鄉", "zipCode": "881" },
        { "name": "望安鄉", "zipCode": "882" },
        { "name": "七美鄉", "zipCode": "883" },
        { "name": "白沙鄉", "zipCode": "884" },
        { "name": "湖西鄉", "zipCode": "885" }
      ]
    },
    {
      "name": "金門縣",
      "zipCode": "890",
      "districts": [
        { "name": "金沙鎮", "zipCode": "890" },
        { "name": "金湖鎮", "zipCode": "891" },
        { "name": "金寧鄉", "zipCode": "892" },
        { "name": "金城鎮", "zipCode": "893" },
        { "name": "烈嶼鄉", "zipCode": "894" },
        { "name": "烏坵鄉", "zipCode": "896" }
      ]
    },
    {
      "name": "連江縣",
      "zipCode": "209",
      "districts": [
        { "name": "南竿鄉", "zipCode": "209" },
        { "name": "北竿鄉", "zipCode": "210" },
        { "name": "莒光鄉", "zipCode": "211" },
        { "name": "東引鄉", "zipCode": "212" }
      ]
    },
    {
      "name": "南投縣",
      "zipCode": "540",
      "districts": [
        { "name": "南投市", "zipCode": "540" },
        { "name": "中寮鄉", "zipCode": "541" },
        { "name": "草屯鎮", "zipCode": "542" },
        { "name": "國姓鄉", "zipCode": "544" },
        { "name": "埔里鎮", "zipCode": "545" },
        { "name": "仁愛鄉", "zipCode": "546" },
        { "name": "名間鄉", "zipCode": "551" },
        { "name": "集集鎮", "zipCode": "552" },
        { "name": "水里鄉", "zipCode": "553" },
        { "name": "魚池鄉", "zipCode": "555" },
        { "name": "信義鄉", "zipCode": "556" },
        { "name": "竹山鎮", "zipCode": "557" },
        { "name": "鹿谷鄉", "zipCode": "558" }
      ]
    },
    {
      "name": "嘉義市",
      "zipCode": "600",
      "districts": [
        { "name": "東區", "zipCode": "600" },
        { "name": "西區", "zipCode": "600" }
      ]
    }
  ]
}
